{
  "type": "FeatureCollection",
  "features": [
    {
      "type": "Feature",
      "properties": {
        "norad_id": 66933,
        "name": "STARLINK-36157",
        "group": "last-30-days",
        "lat": -38.836298807657386,
        "lon": -42.73870568489512,
        "alt_km": 374.0758530881967,
        "timestamp": "2025-12-23T22:42:31.702825+00:00",
        "meta_object_name": "STARLINK-36157",
        "meta_object_id": "2025-286J",
        "meta_epoch": "2025-12-23T06:00:00.999648",
        "meta_mean_motion": 15.69576644,
        "meta_eccentricity": 0.00013718,
        "meta_inclination": 53.159,
        "meta_ra_of_asc_node": 357.8137,
        "meta_arg_of_pericenter": 101.4599,
        "meta_mean_anomaly": 234.8077,
        "meta_ephemeris_type": 0,
        "meta_classification_type": "U",
        "meta_norad_cat_id": 66933,
        "meta_element_set_no": 999,
        "meta_rev_at_epoch": 368,
        "meta_bstar": -0.01918888,
        "meta_mean_motion_dot": -0.02034186,
        "meta_mean_motion_ddot": 0,
        "tle_line1": "1 66933U 25286J   25357.25001157 -.02034186  00000+0 -19189-1 0  9997",
        "tle_line2": "2 66933  53.1590 357.8137 0001371 101.4599 234.8077 15.69576644  3688"
      },
      "geometry": {
        "type": "Point",
        "coordinates": [
          -42.73870568489512,
          -38.836298807657386
        ]
      }
    },
    {
      "type": "Feature",
      "properties": {
        "norad_id": 66934,
        "name": "STARLINK-36153",
        "group": "last-30-days",
        "lat": -37.54157843800915,
        "lon": -40.79658423860114,
        "alt_km": 373.2200883139012,
        "timestamp": "2025-12-23T22:42:31.702837+00:00",
        "meta_object_name": "STARLINK-36153",
        "meta_object_id": "2025-286K",
        "meta_epoch": "2025-12-23T06:00:00.999648",
        "meta_mean_motion": 15.6952817,
        "meta_eccentricity": 8.401e-05,
        "meta_inclination": 53.1592,
        "meta_ra_of_asc_node": 357.8093,
        "meta_arg_of_pericenter": 89.9328,
        "meta_mean_anomaly": 248.2317,
        "meta_ephemeris_type": 0,
        "meta_classification_type": "U",
        "meta_norad_cat_id": 66934,
        "meta_element_set_no": 999,
        "meta_rev_at_epoch": 368,
        "meta_bstar": -0.018036536,
        "meta_mean_motion_dot": -0.01922235,
        "meta_mean_motion_ddot": 0,
        "tle_line1": "1 66934U 25286K   25357.25001157 -.01922235  00000+0 -18037-1 0  9999",
        "tle_line2": "2 66934  53.1592 357.8093 0000840  89.9328 248.2317 15.69528170  3689"
      },
      "geometry": {
        "type": "Point",
        "coordinates": [
          -40.79658423860114,
          -37.54157843800915
        ]
      }
    },
    {
      "type": "Feature",
      "properties": {
        "norad_id": 66935,
        "name": "STARLINK-36127",
        "group": "last-30-days",
        "lat": -36.29420395405327,
        "lon": -39.028968469475366,
        "alt_km": 373.38717212675147,
        "timestamp": "2025-12-23T22:42:31.702847+00:00",
        "meta_object_name": "STARLINK-36127",
        "meta_object_id": "2025-286L",
        "meta_epoch": "2025-12-23T06:00:00.999648",
        "meta_mean_motion": 15.69588773,
        "meta_eccentricity": 0.00010659,
        "meta_inclination": 53.1593,
        "meta_ra_of_asc_node": 357.8055,
        "meta_arg_of_pericenter": 82.4245,
        "meta_mean_anomaly": 257.6093,
        "meta_ephemeris_type": 0,
        "meta_classification_type": "U",
        "meta_norad_cat_id": 66935,
        "meta_element_set_no": 999,
        "meta_rev_at_epoch": 368,
        "meta_bstar": -0.018657862,
        "meta_mean_motion_dot": -0.01985234,
        "meta_mean_motion_ddot": 0,
        "tle_line1": "1 66935U 25286L   25357.25001157 -.01985234  00000+0 -18658-1 0  9997",
        "tle_line2": "2 66935  53.1593 357.8055 0001065  82.4245 257.6093 15.69588773  3685"
      },
      "geometry": {
        "type": "Point",
        "coordinates": [
          -39.028968469475366,
          -36.29420395405327
        ]
      }
    },
    {
      "type": "Feature",
      "properties": {
        "norad_id": 66936,
        "name": "STARLINK-36160",
        "group": "last-30-days",
        "lat": -35.001006201735656,
        "lon": -37.29090868078828,
        "alt_km": 373.30941396328853,
        "timestamp": "2025-12-23T22:42:31.702859+00:00",
        "meta_object_name": "STARLINK-36160",
        "meta_object_id": "2025-286M",
        "meta_epoch": "2025-12-23T06:00:00.999648",
        "meta_mean_motion": 15.69584109,
        "meta_eccentricity": 0.00010714,
        "meta_inclination": 53.1591,
        "meta_ra_of_asc_node": 357.8019,
        "meta_arg_of_pericenter": 86.5362,
        "meta_mean_anomaly": 255.4171,
        "meta_ephemeris_type": 0,
        "meta_classification_type": "U",
        "meta_norad_cat_id": 66936,
        "meta_element_set_no": 999,
        "meta_rev_at_epoch": 368,
        "meta_bstar": -0.01860056,
        "meta_mean_motion_dot": -0.01979522,
        "meta_mean_motion_ddot": 0,
        "tle_line1": "1 66936U 25286M   25357.25001157 -.01979522  00000+0 -18601-1 0  9999",
        "tle_line2": "2 66936  53.1591 357.8019 0001071  86.5362 255.4171 15.69584109  3688"
      },
      "geometry": {
        "type": "Point",
        "coordinates": [
          -37.29090868078828,
          -35.001006201735656
        ]
      }
    },
    {
      "type": "Feature",
      "properties": {
        "norad_id": 66937,
        "name": "STARLINK-36165",
        "group": "last-30-days",
        "lat": -33.68634537406575,
        "lon": -35.61129202981891,
        "alt_km": 373.2118718481079,
        "timestamp": "2025-12-23T22:42:31.702875+00:00",
        "meta_object_name": "STARLINK-36165",
        "meta_object_id": "2025-286N",
        "meta_epoch": "2025-12-23T06:00:00.999648",
        "meta_mean_motion": 15.69586184,
        "meta_eccentricity": 0.00010888,
        "meta_inclination": 53.159,
        "meta_ra_of_asc_node": 357.7977,
        "meta_arg_of_pericenter": 83.4671,
        "meta_mean_anomaly": 260.4009,
        "meta_ephemeris_type": 0,
        "meta_classification_type": "U",
        "meta_norad_cat_id": 66937,
        "meta_element_set_no": 999,
        "meta_rev_at_epoch": 368,
        "meta_bstar": -0.018616967,
        "meta_mean_motion_dot": -0.01981227,
        "meta_mean_motion_ddot": 0,
        "tle_line1": "1 66937U 25286N   25357.25001157 -.01981227  00000+0 -18617-1 0  9992",
        "tle_line2": "2 66937  53.1590 357.7977 0001088  83.4671 260.4009 15.69586184  3688"
      },
      "geometry": {
        "type": "Point",
        "coordinates": [
          -35.61129202981891,
          -33.68634537406575
        ]
      }
    },
    {
      "type": "Feature",
      "properties": {
        "norad_id": 66938,
        "name": "STARLINK-36155",
        "group": "last-30-days",
        "lat": -32.3473599290979,
        "lon": -33.980796686803195,
        "alt_km": 372.9426694641097,
        "timestamp": "2025-12-23T22:42:31.702885+00:00",
        "meta_object_name": "STARLINK-36155",
        "meta_object_id": "2025-286P",
        "meta_epoch": "2025-12-23T06:00:00.999648",
        "meta_mean_motion": 15.6958749,
        "meta_eccentricity": 9.384e-05,
        "meta_inclination": 53.159,
        "meta_ra_of_asc_node": 357.7928,
        "meta_arg_of_pericenter": 81.6219,
        "meta_mean_anomaly": 264.1647,
        "meta_ephemeris_type": 0,
        "meta_classification_type": "U",
        "meta_norad_cat_id": 66938,
        "meta_element_set_no": 999,
        "meta_rev_at_epoch": 368,
        "meta_bstar": -0.018631441,
        "meta_mean_motion_dot": -0.01982566,
        "meta_mean_motion_ddot": 0,
        "tle_line1": "1 66938U 25286P   25357.25001157 -.01982566  00000+0 -18631-1 0  9996",
        "tle_line2": "2 66938  53.1590 357.7928 0000938  81.6219 264.1647 15.69587490  3686"
      },
      "geometry": {
        "type": "Point",
        "coordinates": [
          -33.980796686803195,
          -32.3473599290979
        ]
      }
    },
    {
      "type": "Feature",
      "properties": {
        "norad_id": 66939,
        "name": "STARLINK-36154",
        "group": "last-30-days",
        "lat": -29.61457012561898,
        "lon": -30.864332274557558,
        "alt_km": 372.9211772811086,
        "timestamp": "2025-12-23T22:42:31.702895+00:00",
        "meta_object_name": "STARLINK-36154",
        "meta_object_id": "2025-286Q",
        "meta_epoch": "2025-12-23T06:00:00.999648",
        "meta_mean_motion": 15.6958521,
        "meta_eccentricity": 0.00011061,
        "meta_inclination": 53.159,
        "meta_ra_of_asc_node": 357.785,
        "meta_arg_of_pericenter": 85.5409,
        "meta_mean_anomaly": 264.0788,
        "meta_ephemeris_type": 0,
        "meta_classification_type": "U",
        "meta_norad_cat_id": 66939,
        "meta_element_set_no": 999,
        "meta_rev_at_epoch": 368,
        "meta_bstar": -0.018613464,
        "meta_mean_motion_dot": -0.0198084,
        "meta_mean_motion_ddot": 0,
        "tle_line1": "1 66939U 25286Q   25357.25001157 -.01980840  00000+0 -18613-1 0  9990",
        "tle_line2": "2 66939  53.1590 357.7850 0001106  85.5409 264.0788 15.69585210  3686"
      },
      "geometry": {
        "type": "Point",
        "coordinates": [
          -30.864332274557558,
          -29.61457012561898
        ]
      }
    }
  ]
}